ONEWEB-0120             
1 47266U 20100J   24132.43615392 -.00000218  00000+0 -64127-3 0  9998
2 47266  87.8932 143.3264 0002126  91.8770 268.2602 13.12444061164159
ONEWEB-0121             
1 47267U 20100K   24132.11995139 -.00000109  00000+0 -33830-3 0  9990
2 47267  87.8928 143.3823 0001975  95.3647 264.7707 13.12443994164026
ONEWEB-0122             
1 47268U 20100L   24132.49624209  .00000213  00000+0  55780-3 0  9991
2 47268  87.8926 143.3122 0002177  92.2265 267.9113 13.12440636163984
ONEWEB-0123             
1 47269U 20100M   24132.03419164  .00000318  00000+0  84798-3 0  9991
2 47269  87.8930 143.4165 0002039  87.1521 272.9841 13.12444744164061
ONEWEB-0124             
1 47270U 20100N   24132.55674392  .00000513  00000+0  13892-2 0  9999
2 47270  87.8933 143.3090 0001957  99.5005 260.6345 13.12444001164018
ONEWEB-0125             
1 47271U 20100P   24131.76895259 -.00000051  00000+0 -17643-3 0  9997
2 47271  87.8932 143.4235 0001684  85.9507 274.1814 13.12442734163979
ONEWEB-0126             
1 47272U 20100Q   24132.78780839  .00000142  00000+0  35869-3 0  9997
2 47272  87.8928 143.2296 0002166  88.8117 271.3259 13.12441126164174
ONEWEB-0127             
1 47273U 20100R   24132.52020634 -.00000323  00000+0 -93281-3 0  9995
2 47273  87.8933 143.3095 0002164  89.7871 270.3506 13.12443669164161
